FIREFLY ALPHA R/B       
1 68128U 26046B   26078.27136572  .00028560  00000+0  40086-3 0  9990
2 68128 123.0919 247.3869 0014453 357.9669   2.1330 15.56452343  1135
GUOWANG GROUP 20 OBJECT*
1 68129U 26047A   26078.05554436 -.00000149  00000+0  21030-5 0  9995
2 68129  50.0054  32.2608 0008899 282.8383  77.1528 14.05638333   883
GUOWANG GROUP 20 OBJECT*
1 68130U 26047B   26078.05501345 -.00000148  00000+0  25318-5 0  9990
2 68130  50.0044  32.2582 0007546 277.9720  82.0329 14.05761022   878
GUOWANG GROUP 20 OBJECT*
1 68131U 26047C   26077.91264073 -.00000147  00000+0  30661-5 0  9995
2 68131  50.0035  32.8342 0008113 284.5810  75.4196 14.05810371   863
GUOWANG GROUP 20 OBJECT*
1 68132U 26047D   26078.12556338 -.00000146  00000+0  36920-5 0  9991
2 68132  50.0078  31.9684 0008434 289.4802  70.5192 14.05881519   887
GUOWANG GROUP 20 OBJECT*
1 68133U 26047E   26076.06403444 -.00000145  00000+0  46301-5 0  9995
2 68133  50.0041  40.3867 0006830 274.9069  85.1056 14.05931996   603
GUOWANG GROUP 20 OBJECT*
1 68134U 26047F   26077.84040686 -.00000143  00000+0  54300-5 0  9994
2 68134  50.0090  33.1280 0006393 285.5656  74.4543 14.06079857   849
GUOWANG GROUP 20 OBJECT*
1 68135U 26047G   26078.19590449 -.00000144  00000+0  48751-5 0  9995
2 68135  50.0116  31.6805 0007386 291.8734  68.1386 14.06047332   900
GUOWANG GROUP 20 OBJECT*
1 68136U 26047H   26077.98225515 -.00000146  00000+0  41386-5 0  9990
2 68136  50.0089  32.5476 0007509 297.2561  62.7580 14.06144171   869
GUOWANG GROUP 20 OBJECT*
1 68137U 26047J   26077.98170420 -.00000144  00000+0  48405-5 0  9992
2 68137  50.0089  32.5436 0005912 296.0035  64.0262 14.06269806   871
CZ-8A R/B               
1 68138U 26047K   26078.31024602 -.00000127  00000+0  14723-4 0  9997
2 68138  49.9542  30.8861 0044764 171.4824 188.6853 14.12228377   915
SHIYAN-30 03            
1 68139U 26048A   26078.27608714  .00002291  00000+0  22623-3 0  9996
2 68139  34.9998  86.5900 0004004 286.8928  73.1338 14.91675598   932
